{
  "norad_id": 64097,
  "name": "STARLINK-34174",
  "history": [
    {
      "epoch": "2026-04-14T19:55:35.640768Z",
      "apogee_km": 475.9111340858617,
      "perigee_km": 474.5185329932865,
      "latitude_deg": 2.315419312952838e-07,
      "longitude_deg": 77.14632954388762,
      "height_km": 476.1506235404836,
      "semi_major_axis_km": 6853.351833539574,
      "eccentricity": 0.0001016,
      "inclination_deg": 53.1607,
      "raan_deg": 219.0459,
      "arg_perigee_deg": 93.0703,
      "mean_anomaly_deg": 267.0414,
      "mean_motion_rev_day": 15.30200079
    },
    {
      "epoch": "2026-04-15T16:18:17.015040Z",
      "apogee_km": 475.83183724493483,
      "perigee_km": 474.57493461815375,
      "latitude_deg": 1.60221505354622e-05,
      "longitude_deg": 126.69164885093029,
      "height_km": 476.0934556962956,
      "semi_major_axis_km": 6853.340385931544,
      "eccentricity": 9.17e-05,
      "inclination_deg": 53.1608,
      "raan_deg": 215.1005,
      "arg_perigee_deg": 89.219,
      "mean_anomaly_deg": 270.8916,
      "mean_motion_rev_day": 15.30203913
    },
    {
      "epoch": "2026-04-16T17:23:08.501280Z",
      "apogee_km": 476.1168167742753,
      "perigee_km": 474.3335719313045,
      "latitude_deg": -1.642385238406249e-05,
      "longitude_deg": 104.59396191791997,
      "height_km": 476.04466428394795,
      "semi_major_axis_km": 6853.36219435279,
      "eccentricity": 0.0001301,
      "inclination_deg": 53.1602,
      "raan_deg": 210.2474,
      "arg_perigee_deg": 84.943,
      "mean_anomaly_deg": 275.1719,
      "mean_motion_rev_day": 15.30196609
    },
    {
      "epoch": "2026-04-17T16:53:56.431968Z",
      "apogee_km": 476.06153556529716,
      "perigee_km": 474.37656944622813,
      "latitude_deg": 4.957494215218495e-05,
      "longitude_deg": 106.37884373158236,
      "height_km": 475.81914845149146,
      "semi_major_axis_km": 6853.356052505762,
      "eccentricity": 0.00012293,
      "inclination_deg": 53.1585,
      "raan_deg": 205.6976,
      "arg_perigee_deg": 69.2867,
      "mean_anomaly_deg": 290.8266,
      "mean_motion_rev_day": 15.30198666
    },
    {
      "epoch": "2026-04-18T17:58:46.941888Z",
      "apogee_km": 475.948758327474,
      "perigee_km": 474.40265098130476,
      "latitude_deg": 1.2319561567038556e-05,
      "longitude_deg": 84.28363067604327,
      "height_km": 475.90633263654706,
      "semi_major_axis_km": 6853.31270465439,
      "eccentricity": 0.0001128,
      "inclination_deg": 53.1581,
      "raan_deg": 200.8429,
      "arg_perigee_deg": 77.4879,
      "mean_anomaly_deg": 282.6248,
      "mean_motion_rev_day": 15.30213184
    },
    {
      "epoch": "2026-04-19T17:29:35.643264Z",
      "apogee_km": 475.74337137127986,
      "perigee_km": 474.8195305640893,
      "latitude_deg": 2.3190020483797933e-05,
      "longitude_deg": 86.06264916883764,
      "height_km": 475.7246203605845,
      "semi_major_axis_km": 6853.418450967684,
      "eccentricity": 6.74e-05,
      "inclination_deg": 53.158,
      "raan_deg": 196.2905,
      "arg_perigee_deg": 351.1664,
      "mean_anomaly_deg": 8.9325,
      "mean_motion_rev_day": 15.30177768
    }
  ]
}